NORAD_CAT_ID,OBJECT_NAME,OBJECT_TYPE,EPOCH,MEAN_MOTION,ECCENTRICITY,INCLINATION,RA_OF_ASC_NODE,ARG_OF_PERICENTER,MEAN_ANOMALY,BSTAR,MEAN_MOTION_DOT,MEAN_MOTION_DDOT,TLE_LINE0,TLE_LINE1,TLE_LINE2,SEMIMAJOR_AXIS,PERIOD,APOGEE,PERIGEE,DECAYED
53572.0,STARLINK-4555,PAYLOAD,2024-03-21 14:33:20,15.08846927,0.0001573,53.2203,37.3909,105.842,254.2745,2.7231e-05,1.45e-06,0.0,0 STARLINK-4555,1 53572U 22101AX  24081.60648720  .00000145  00000-0  27231-4 0  9995,2 53572  53.2203  37.3909 0001573 105.8420 254.2745 15.08846927 88045,6917.859,95.437,540.812,538.636,0.0
53572.0,STARLINK-4555,PAYLOAD,2024-03-21 20:54:53,15.08835236,0.000171,53.2193,36.2036,107.5808,252.5371,1.0362e-05,-1.23e-06,0.0,0 STARLINK-4555,1 53572U 22101AX  24081.87145470 -.00000123  00000-0  10362-4 0  9992,2 53572  53.2193  36.2036 0001710 107.5808 252.5371 15.08835236 88085,6917.895,95.438,540.943,538.577,0.0
53572.0,STARLINK-4555,PAYLOAD,2024-03-22 03:16:25,15.08847386,0.0001819,53.2189,35.017,125.7137,234.4025,8.7435e-05,1.104e-05,0.0,0 STARLINK-4555,1 53572U 22101AX  24082.13640236  .00001104  00000-0  87435-4 0  9996,2 53572  53.2189  35.0170 0001819 125.7137 234.4025 15.08847386 88122,6917.858,95.437,540.981,538.464,0.0
53572.0,STARLINK-4555,PAYLOAD,2024-03-22 06:27:10,15.08854444,0.000189,53.2205,34.4174,126.1539,233.9628,0.00018817,2.709e-05,0.0,0 STARLINK-4555,1 53572U 22101AX  24082.26887538  .00002709  00000-0  18817-3 0  9997,2 53572  53.2205  34.4174 0001890 126.1539 233.9628 15.08854444 88146,6917.836,95.437,541.009,538.394,0.0
53572.0,STARLINK-4555,PAYLOAD,2024-03-22 22:21:03,15.08835642,0.0001061,53.2195,31.4465,116.3952,243.7149,-1.4695e-05,-5.22e-06,0.0,0 STARLINK-4555,1 53572U 22101AX  24082.93129495 -.00000522  00000-0 -14695-4 0  9996,2 53572  53.2195  31.4465 0001061 116.3952 243.7149 15.08835642 88241,6917.894,95.438,540.493,539.025,0.0
53572.0,STARLINK-4555,PAYLOAD,2024-03-23 03:07:14,15.08829706,0.0001287,53.2197,30.5545,83.614,276.4999,-5.7515e-05,-1.203e-05,0.0,0 STARLINK-4555,1 53572U 22101AX  24083.13002348 -.00001203  00000-0 -57515-4 0  9991,2 53572  53.2197  30.5545 0001287  83.6140 276.4999 15.08829706 88270,6917.912,95.438,540.667,538.887,0.0
53572.0,STARLINK-4555,PAYLOAD,2024-03-23 20:36:27,15.08830604,9e-05,53.2198,27.2832,87.746,272.3635,0.0001988,2.877e-05,0.0,0 STARLINK-4555,1 53572U 22101AX  24083.85865538  .00002877  00000-0  19880-3 0  9996,2 53572  53.2198  27.2832 0000900  87.7460 272.3635 15.08830604 88387,6917.909,95.438,540.397,539.151,0.0
53572.0,STARLINK-4555,PAYLOAD,2024-03-24 02:57:58,15.08861192,0.0001664,53.2197,26.0915,121.545,238.5705,8.2772e-05,1.03e-05,0.0,0 STARLINK-4555,1 53572U 22101AX  24084.12359834  .00001030  00000-0  82772-4 0  9995,2 53572  53.2197  26.0915 0001664 121.5450 238.5705 15.08861192 88422,6917.816,95.436,540.832,538.529,0.0
53572.0,STARLINK-4555,PAYLOAD,2024-03-24 06:08:44,15.08864709,0.0001613,53.2193,25.4952,125.5739,234.5403,0.00011127,1.484e-05,0.0,0 STARLINK-4555,1 53572U 22101AX  24084.25607413  .00001484  00000-0  11127-3 0  9996,2 53572  53.2193  25.4952 0001613 125.5739 234.5403 15.08864709 88440,6917.805,95.436,540.786,538.554,0.0
53572.0,STARLINK-4555,PAYLOAD,2024-03-24 20:27:14,15.08839808,0.0001352,53.2199,22.8234,85.2045,274.9101,0.00023478,3.451e-05,0.0,0 STARLINK-4555,1 53572U 22101AX  24084.85225387  .00003451  00000-0  23478-3 0  9996,2 53572  53.2199  22.8234 0001352  85.2045 274.9101 15.08839808 88537,6917.881,95.438,540.681,538.811,0.0
53572.0,STARLINK-4555,PAYLOAD,2024-03-25 02:48:47,15.08834313,0.0001451,53.2183,21.6355,70.8941,289.2208,0.00015722,2.215e-05,0.0,0 STARLINK-4555,1 53572U 22101AX  24085.11722034  .00002215  00000-0  15722-3 0  9997,2 53572  53.2183  21.6355 0001451  70.8941 289.2208 15.08834313 88573,6917.898,95.438,540.767,538.759,0.0
53572.0,STARLINK-4555,PAYLOAD,2024-03-25 12:21:05,15.0885598,0.0001517,53.2187,19.852,73.7305,286.3854,0.00029615,4.43e-05,0.0,0 STARLINK-4555,1 53572U 22101AX  24085.51464599  .00004430  00000-0  29615-3 0  9997,2 53572  53.2187  19.8520 0001517  73.7305 286.3854 15.08855980 88634,6917.832,95.437,540.746,538.647,0.0
53572.0,STARLINK-4555,PAYLOAD,2024-03-26 01:04:12,15.08801705,0.0001652,53.2192,17.4723,96.8231,263.2949,-0.00061986,-0.00010129,0.0,0 STARLINK-4555,1 53572U 22101AX  24086.04459463 -.00010129  00000-0 -61986-3 0  9991,2 53572  53.2192  17.4723 0001652  96.8231 263.2949 15.08801705 88717,6917.997,95.44,541.005,538.72,0.0
53572.0,STARLINK-4555,PAYLOAD,2024-03-26 12:11:55,15.08814929,0.0001402,53.2191,15.3885,94.9526,265.1627,-0.00016656,-2.936e-05,0.0,0 STARLINK-4555,1 53572U 22101AX  24086.50827857 -.00002936  00000-0 -16656-3 0  9999,2 53572  53.2191  15.3885 0001402  94.9526 265.1627 15.08814929 88784,6917.957,95.439,540.792,538.852,0.0
53572.0,STARLINK-4555,PAYLOAD,2024-03-27 02:30:23,15.08835548,0.0001722,53.2191,12.7126,80.166,279.9526,0.0009178,0.00014347,0.0,0 STARLINK-4555,1 53572U 22101AX  24087.10444119  .00014347  00000-0  91780-3 0  9990,2 53572  53.2191  12.7126 0001722  80.1660 279.9526 15.08835548 88875,6917.894,95.438,540.95,538.568,0.0
53572.0,STARLINK-4555,PAYLOAD,2024-03-27 12:02:40,15.08867609,0.0001545,53.2181,10.9282,79.3661,280.7505,0.00080517,0.00012559,0.0,0 STARLINK-4555,1 53572U 22101AX  24087.50186124  .00012559  00000-0  80517-3 0  9992,2 53572  53.2181  10.9282 0001545  79.3661 280.7505 15.08867609 88938,6917.796,95.436,540.73,538.592,0.0
53572.0,STARLINK-4555,PAYLOAD,2024-03-27 18:24:14,15.08833768,0.0002404,53.2183,9.7395,88.9493,271.1775,-5.1282e-06,-3.7e-06,0.0,0 STARLINK-4555,1 53572U 22101AX  24087.76683482 -.00000370  00000-0 -51282-5 0  9998,2 53572  53.2183   9.7395 0002404  88.9493 271.1775 15.08833768 88971,6917.899,95.438,541.428,538.101,0.0
53572.0,STARLINK-4555,PAYLOAD,2024-03-28 03:56:35,15.087933,0.0001868,53.2186,7.9556,55.5548,304.562,-0.00073081,-0.00011885,0.0,0 STARLINK-4555,1 53572U 22101AX  24088.16429445 -.00011885  00000-0 -73081-3 0  9992,2 53572  53.2186   7.9556 0001868  55.5548 304.5620 15.08793300 89032,6918.023,95.441,541.18,538.596,0.0
53572.0,STARLINK-4555,PAYLOAD,2024-03-28 11:53:29,15.08832499,6.23e-05,53.2184,6.4681,115.4488,244.6568,-7.2126e-05,-1.435e-05,0.0,0 STARLINK-4555,1 53572U 22101AX  24088.49547649 -.00001435  00000-0 -72126-4 0  9995,2 53572  53.2184   6.4681 0000623 115.4488 244.6568 15.08832499 89083,6917.903,95.438,540.199,539.337,0.0
53572.0,STARLINK-4555,PAYLOAD,2024-03-28 23:01:10,15.08849516,0.0001187,53.2194,4.3869,97.5495,262.5632,0.00012469,1.698e-05,0.0,0 STARLINK-4555,1 53572U 22101AX  24088.95915138  .00001698  00000-0  12469-3 0  9990,2 53572  53.2194   4.3869 0001187  97.5495 262.5632 15.08849516 89150,6917.851,95.437,540.537,538.895,0.0
53572.0,STARLINK-4555,PAYLOAD,2024-03-29 03:47:19,15.08857674,0.0001704,53.2178,3.4942,104.0658,256.0524,0.00025631,3.795e-05,0.0,0 STARLINK-4555,1 53572U 22101AX  24089.15786792  .00003795  00000-0  25631-3 0  9990,2 53572  53.2178   3.4942 0001704 104.0658 256.0524 15.08857674 89189,6917.826,95.436,540.87,538.513,0.0
53572.0,STARLINK-4555,PAYLOAD,2024-03-29 11:44:14,15.08876469,7.92e-05,53.2183,2.0087,69.6138,290.4939,0.00059033,9.129e-05,0.0,0 STARLINK-4555,1 53572U 22101AX  24089.48905434  .00009129  00000-0  59033-3 0  9992,2 53572  53.2183   2.0087 0000792  69.6138 290.4939 15.08876469 89236,6917.769,95.435,540.182,539.086,0.0
53572.0,STARLINK-4555,PAYLOAD,2024-03-29 21:16:34,15.08835821,0.0001175,53.2179,0.2263,78.2399,281.8724,4.1311e-05,3.7e-06,0.0,0 STARLINK-4555,1 53572U 22101AX  24089.88651126  .00000370  00000-0  41311-4 0  9992,2 53572  53.2179   0.2263 0001175  78.2399 281.8724 15.08835821 89297,6917.893,95.438,540.571,538.945,0.0
53572.0,STARLINK-4555,PAYLOAD,2024-03-29 22:51:57,15.08838813,0.0001332,53.2183,359.929,83.5664,276.548,8.9026e-05,1.129e-05,0.0,0 STARLINK-4555,1 53572U 22101AX  24089.95275033  .00001129  00000-0  89026-4 0  9997,2 53572  53.2183 359.9290 0001332  83.5664 276.5480 15.08838813 89301,6917.884,95.438,540.67,538.828,0.0
53572.0,STARLINK-4555,PAYLOAD,2024-03-30 03:38:06,15.08845283,0.0001274,53.219,359.0332,93.7196,266.3942,0.00014926,2.089e-05,0.0,0 STARLINK-4555,1 53572U 22101AX  24090.15146719  .00002089  00000-0  14926-3 0  9991,2 53572  53.2190 359.0332 0001274  93.7196 266.3942 15.08845283 89337,6917.864,95.437,540.611,538.848,0.0
53572.0,STARLINK-4555,PAYLOAD,2024-03-30 22:42:44,15.08844757,0.0001419,53.2177,355.4684,87.4029,272.7126,-2.6972e-06,-3.31e-06,0.0,0 STARLINK-4555,1 53572U 22101AX  24090.94634773 -.00000331  00000-0 -26972-5 0  9996,2 53572  53.2177 355.4684 0001419  87.4029 272.7126 15.08844757 89451,6917.866,95.437,540.712,538.749,0.0
53572.0,STARLINK-4555,PAYLOAD,2024-03-31 03:28:53,15.08846423,0.0001042,53.2171,354.5754,84.7956,275.3155,1.7171e-05,-1.4e-07,0.0,0 STARLINK-4555,1 53572U 22101AX  24091.14506542 -.00000014  00000-0  17171-4 0  9998,2 53572  53.2171 354.5754 0001042  84.7956 275.3155 15.08846423 89480,6917.861,95.437,540.447,539.005,0.0
53572.0,STARLINK-4555,PAYLOAD,2024-03-31 17:47:22,15.08836845,0.000113,53.216,351.8991,81.163,278.949,0.00017588,2.512e-05,0.0,0 STARLINK-4555,1 53572U 22101AX  24091.74123032  .00002512  00000-0  17588-3 0  9998,2 53572  53.2160 351.8991 0001130  81.1630 278.9490 15.08836845 89577,6917.89,95.438,540.537,538.973,0.0
53572.0,STARLINK-4555,PAYLOAD,2024-03-31 22:33:31,15.08832053,0.000108,53.2167,351.0071,80.8103,279.3011,0.00010832,1.436e-05,0.0,0 STARLINK-4555,1 53572U 22101AX  24091.93995364  .00001436  00000-0  10832-3 0  9993,2 53572  53.2167 351.0071 0001080  80.8103 279.3011 15.08832053 89605,6917.905,95.438,540.517,539.023,0.0
53572.0,STARLINK-4555,PAYLOAD,2024-04-01 09:41:13,15.08845934,0.0001243,53.2191,348.9278,96.6828,263.4306,0.00012723,1.738e-05,0.0,0 STARLINK-4555,1 53572U 22101AX  24092.40362583  .00001738  00000-0  12723-3 0  9993,2 53572  53.2191 348.9278 0001243  96.6828 263.4306 15.08845934 89676,6917.862,95.437,540.587,538.867,0.0
